     2.100          NAVIGATION                              RINEX VERSION / TYPE
fic2rin                                 08/09/2011 00:19:54 PGM / RUN BY / DATE
                                                            END OF HEADER
16 11  8  8 16  0  0.0 -.190499704331D-03 -.227373675443D-11  .000000000000D+00
     .390000000000D+02 -.985937500000D+02  .417160233541D-08  .130766522809D+01
    -.484846532345D-05  .629909255076D-02  .762380659580D-05  .515385938263D+04
     .144000000000D+06  .745058059692D-07  .197872918261D+01  .540167093277D-07
     .976999575405D+00  .238968750000D+03 -.649287516288D-01 -.784139805428D-08
    -.112504686272D-09  .100000000000D+01  .164800000000D+04  .000000000000D+00
     .240000000000D+01  .000000000000D+00 -.977888703346D-08  .390000000000D+02
     .136806000000D+06  .400000000000D+01
17 11  8  8 16  0  0.0  .179901253432D-03 -.125055521494D-11  .000000000000D+00
     .500000000000D+02 -.139062500000D+02  .465162233017D-08  .347945446467D+00
    -.644475221634D-06  .643165654037D-02  .829435884953D-05  .515378969383D+04
     .144000000000D+06 -.149011611938D-07  .302083171100D+01  .124797224998D-06
     .961927279652D+00  .221093750000D+03 -.239538571444D+01 -.806747890002D-08
     .243938732456D-09  .100000000000D+01  .164800000000D+04  .000000000000D+00
     .240000000000D+01  .000000000000D+00 -.107102096081D-07  .500000000000D+02
     .136806000000D+06  .400000000000D+01
18 11  8  8 16  0  0.0  .151281710714D-03  .193267624127D-11  .000000000000D+00
     .390000000000D+02  .500000000000D+02  .496163524345D-08  .183863284591D+01
     .255368649960D-05  .127254620893D-01  .103004276752D-04  .515362210274D+04
     .144000000000D+06 -.305473804474D-06 -.118419801579D+01 -.191852450371D-06
     .932032953931D+00  .163781250000D+03 -.222726197102D+01 -.819248410699D-08
    -.336085427879D-09  .100000000000D+01  .164800000000D+04  .000000000000D+00
     .240000000000D+01  .000000000000D+00 -.107102096081D-07  .390000000000D+02
     .136806000000D+06  .400000000000D+01
19 11  8  8 16  0  0.0 -.170787796378D-03 -.409272615798D-11  .000000000000D+00
     .970000000000D+02 -.146250000000D+02  .462804991971D-08 -.285891303995D+00
    -.895932316780D-06  .754445721395D-02  .829063355923D-05  .515368530083D+04
     .144000000000D+06  .113621354103D-06  .307463207552D+01 -.745058059692D-08
     .959409038803D+00  .219531250000D+03  .668226409855D-01 -.805354974839D-08
     .233581158164D-09  .100000000000D+01  .164800000000D+04  .000000000000D+00
     .240000000000D+01  .000000000000D+00 -.144354999065D-07  .970000000000D+02
     .136806000000D+06  .400000000000D+01
20 11  8  8 16  0  0.0  .515053980052D-04  .454747350886D-12  .000000000000D+00
     .300000000000D+02  .350625000000D+02  .491984778855D-08  .223202485339D+01
     .185891985893D-05  .447448540945D-02  .930577516556D-05  .515361574936D+04
     .144000000000D+06  .968575477600D-07 -.123810261469D+01 -.540167093277D-07
     .932231985398D+00  .184156250000D+03  .127614025927D+01 -.812105256015D-08
    -.230723896291D-09  .100000000000D+01  .164800000000D+04  .000000000000D+00
     .240000000000D+01  .000000000000D+00 -.745058059692D-08  .300000000000D+02
     .136806000000D+06  .400000000000D+01
21 11  8  8 16  0  0.0 -.163328833878D-03 -.250111042988D-11  .000000000000D+00
     .680000000000D+02 -.337500000000D+01  .526093342471D-08  .297677645677D+01
    -.353902578354D-06  .180452187778D-01  .649876892567D-05  .515372214890D+04
     .144000000000D+06  .149011611938D-07 -.223805908764D+01 -.219792127609D-06
     .931495436867D+00  .236093750000D+03 -.233896740388D+01 -.802533428739D-08
    -.160363822654D-09  .100000000000D+01  .164800000000D+04  .000000000000D+00
     .240000000000D+01  .000000000000D+00 -.116415321827D-07  .680000000000D+02
     .136806000000D+06  .400000000000D+01
22 11  8  8 16  0  0.0  .145479571074D-03 -.454747350886D-12  .000000000000D+00
     .640000000000D+02  .418750000000D+02  .503378110576D-08  .100833154291D+01
     .220350921154D-05  .591763237026D-02  .100154429674D-04  .515370708847D+04
     .144000000000D+06 -.113621354103D-06 -.118021006307D+01 -.484287738800D-07
     .929736245692D+00  .168937500000D+03 -.197681506695D+01 -.827498754359D-08
    -.394302138552D-09  .100000000000D+01  .164800000000D+04  .000000000000D+00
     .240000000000D+01  .000000000000D+00 -.167638063431D-07  .640000000000D+02
     .136806000000D+06  .400000000000D+01
23 11  8  8 16  0  0.0  .285642687231D-03 -.295585778076D-11  .000000000000D+00
     .670000000000D+02  .881250000000D+02  .437161066656D-08 -.753627191735D+00
     .457838177681D-05  .752358604223D-02  .551156699657D-05  .515374885178D+04
     .144000000000D+06  .987201929092D-07 -.139849488287D+00 -.502914190292D-07
     .963874913693D+00  .270312500000D+03 -.308814263162D+01 -.813283876538D-08
     .223580741607D-09  .100000000000D+01  .164800000000D+04  .000000000000D+00
     .240000000000D+01  .000000000000D+00 -.200234353542D-07  .670000000000D+02
     .136806000000D+06  .400000000000D+01
24 11  8  8 16  0  0.0  .413604546338D-03  .318323145621D-11  .000000000000D+00
     .860000000000D+02 -.102187500000D+02  .492984820511D-08 -.146202514187D+01
    -.502914190292D-06  .655602139886D-02  .695139169693D-05  .515342171669D+04
     .144000000000D+06 -.117346644402D-06 -.219208521342D+01 -.540167093277D-07
     .948044301188D+00  .240750000000D+03 -.232463985047D+00 -.815212528303D-08
    -.871464871438D-10  .100000000000D+01  .164800000000D+04  .000000000000D+00
     .340000000000D+01  .000000000000D+00 -.139698386192D-08  .860000000000D+02
     .136806000000D+06  .400000000000D+01
25 11  8  8 16  0  0.0  .130063854158D-04  .181898940355D-11  .000000000000D+00
     .530000000000D+02 -.109750000000D+03  .432732310752D-08  .209091478615D+01
    -.570900738239D-05  .100809708238D-02  .832229852676D-05  .515362243462D+04
     .144000000000D+06 -.447034835815D-07  .193011402296D+01  .558793544769D-08
     .964807566394D+00  .220062500000D+03  .985018085408D+00 -.791961559806D-08
     .114290474943D-10  .100000000000D+01  .164800000000D+04  .000000000000D+00
     .240000000000D+01  .000000000000D+00  .558793544769D-08  .530000000000D+02
     .136806000000D+06  .400000000000D+01
26 11  8  8 16  0  0.0 -.117032788694D-03 -.122781784739D-10  .000000000000D+00
     .930000000000D+02  .966562500000D+02  .398766610230D-08 -.100018843032D+01
     .553578138351D-05  .203676659148D-01  .509433448315D-05  .515366366386D+04
     .144000000000D+06  .763684511185D-07 -.734093052894D-01  .391155481339D-06
     .986865641224D+00  .299437500000D+03  .115845015728D+01 -.812498129523D-08
     .202151277555D-09  .100000000000D+01  .164800000000D+04  .000000000000D+00
     .240000000000D+01  .000000000000D+00 -.605359673500D-08  .930000000000D+02
     .136806000000D+06  .400000000000D+01
27 11  8  8 16  0  0.0  .292744487524D-03  .375166564481D-11  .000000000000D+00
     .840000000000D+02 -.271562500000D+02  .443232748137D-08 -.355426655918D-01
    -.149942934513D-05  .215848202351D-01  .318139791489D-05  .515364116287D+04
     .144000000000D+06 -.262632966042D-06  .851208874689D+00 -.208616256714D-06
     .981311701994D+00  .333468750000D+03 -.121979314016D+01 -.860964434053D-08
     .103575742917D-10  .100000000000D+01  .164800000000D+04  .000000000000D+00
     .485000000000D+01  .000000000000D+00 -.419095158577D-08  .840000000000D+02
     .136806000000D+06  .400000000000D+01
28 11  8  8 16  0  0.0  .580358318985D-04  .295585778076D-11  .000000000000D+00
     .410000000000D+02 -.854375000000D+02  .426982071231D-08  .106725627539D+01
    -.451505184174D-05  .170981353149D-01  .877864658833D-05  .515370664215D+04
     .144000000000D+06 -.322237610817D-06  .198584810478D+01 -.149011611938D-07
     .975306214081D+00  .226218750000D+03 -.188417667342D+01 -.813248160764D-08
    -.610739725475D-10  .100000000000D+01  .164800000000D+04  .000000000000D+00
     .240000000000D+01  .000000000000D+00 -.102445483208D-07  .410000000000D+02
     .136806000000D+06  .400000000000D+01
29 11  8  8 16  0  0.0  .229765195400D-03  .318323145621D-11  .000000000000D+00
     .740000000000D+02 -.174062500000D+02  .447732935588D-08 -.310609271398D+01
    -.903382897377D-06  .237564614508D-02  .887922942638D-05  .515374876595D+04
     .144000000000D+06  .279396772385D-07  .302924191000D+01  .391155481339D-07
     .962387939389D+00  .208625000000D+03 -.116917213696D+01 -.780853954273D-08
     .303584074067D-09  .100000000000D+01  .164800000000D+04  .000000000000D+00
     .240000000000D+01  .000000000000D+00 -.931322574615D-08  .740000000000D+02
     .136806000000D+06  .400000000000D+01
30 11  8  8 16  0  0.0  .944943167269D-04 -.147792889038D-11  .000000000000D+00
     .111000000000D+03 -.117718750000D+03  .450554481688D-08  .173722911978D+01
    -.633113086224D-05  .117247339804D-01  .764615833759D-05  .515545034790D+04
     .144000000000D+06  .521540641785D-07  .184171815331D+01 -.260770320892D-06
     .956039850692D+00  .227562500000D+03  .156348830197D+01 -.798783272530D-08
    -.285726187357D-10  .100000000000D+01  .164800000000D+04  .000000000000D+00
     .965000000000D+01  .630000000000D+02 -.419095158577D-08  .111000000000D+03
     .136806000000D+06  .400000000000D+01
32 11  8  8 16  0  0.0 -.306835398078D-03 -.704858393874D-11  .000000000000D+00
     .990000000000D+02  .488750000000D+02  .442589864216D-08 -.170357515896D+01
     .263564288616D-05  .121904228581D-01  .101160258055D-04  .515360966682D+04
     .144000000000D+06 -.236555933952D-06 -.111174254187D+01  .540167093277D-07
     .953989489080D+00  .185281250000D+03 -.755830255661D+00 -.796676041898D-08
    -.139648674071D-09  .100000000000D+01  .164800000000D+04  .000000000000D+00
     .240000000000D+01  .000000000000D+00 -.279396772385D-08  .990000000000D+02
     .136806000000D+06  .400000000000D+01
